{
    "links": {
        "self": "http://www.neowsapp.com/rest/v1/neo/3729837?api_key=iIulBulltgU6a56xZRHN4H3l9WmuAYTsLGpBGhQ2"
    },
    "id": "3729837",
    "neo_reference_id": "3729837",
    "name": "(2015 TZ144)",
    "designation": "2015 TZ144",
    "nasa_jpl_url": "http://ssd.jpl.nasa.gov/sbdb.cgi?sstr=3729837",
    "absolute_magnitude_h": 23.3,
    "estimated_diameter": {
        "kilometers": {
            "estimated_diameter_min": 0.058150704,
            "estimated_diameter_max": 0.130028927
        },
        "meters": {
            "estimated_diameter_min": 58.1507039646,
            "estimated_diameter_max": 130.0289270043
        },
        "miles": {
            "estimated_diameter_min": 0.0361331611,
            "estimated_diameter_max": 0.0807962044
        },
        "feet": {
            "estimated_diameter_min": 190.7831555951,
            "estimated_diameter_max": 426.6041048727
        }
    },
    "is_potentially_hazardous_asteroid": false,
    "close_approach_data": [
        {
            "close_approach_date": "2015-09-17",
            "close_approach_date_full": "2015-Sep-17 04:17",
            "epoch_date_close_approach": 1442463420000,
            "relative_velocity": {
                "kilometers_per_second": "6.1619011465",
                "kilometers_per_hour": "22182.8441275166",
                "miles_per_hour": "13783.5566746783"
            },
            "miss_distance": {
                "astronomical": "0.1734440802",
                "lunar": "67.4697471978",
                "kilometers": "25946864.962029174",
                "miles": "16122634.2709196412"
            },
            "orbiting_body": "Earth"
        }
    ],
    "orbital_data": {
        "orbit_id": "5",
        "orbit_determination_date": "2017-04-06 08:31:26",
        "first_observation_date": "2015-10-10",
        "last_observation_date": "2015-11-07",
        "data_arc_in_days": 28,
        "observations_used": 16,
        "orbit_uncertainty": "8",
        "minimum_orbit_intersection": ".155409",
        "jupiter_tisserand_invariant": "3.314",
        "epoch_osculation": "2457306.5",
        "eccentricity": ".5222451533396915",
        "semi_major_axis": "2.40224364303928",
        "inclination": "7.876771946883939",
        "ascending_node_longitude": "20.08176889746428",
        "orbital_period": "1359.953334017662",
        "perihelion_distance": "1.147683543320932",
        "perihelion_argument": "332.8081585843112",
        "aphelion_distance": "3.656803742757627",
        "perihelion_time": "2457277.717402712730",
        "mean_anomaly": "7.619184250099154",
        "mean_motion": ".2647149655764032",
        "equinox": "J2000",
        "orbit_class": {
            "orbit_class_type": "AMO",
            "orbit_class_description": "Near-Earth asteroid orbits similar to that of 1221 Amor",
            "orbit_class_range": "1.017 AU < q (perihelion) < 1.3 AU"
        }
    },
    "is_sentry_object": false
}